start=new Date('2022-01-24T00:00:00.000Z').valueOf();
sats=[{"NORAD_CAT_ID":"49763","COUNTRY_CODE":"US","MEAN_MOTION":"15.40463230","CLASSIFICATION_TYPE":"U","CENTER_NAME":"EARTH","OBJECT_NAME":"STARLINK-3198","SITE":"AFETR","TLE_LINE2":"2 49763  53.2173  74.0097 0002910  17.0128 260.1715 15.40463230  3632","MEAN_ANOMALY":"260.1715","FILE":"3280923","OBJECT_ID":"2021-115AR","MEAN_ELEMENT_THEORY":"SGP4","RCS_SIZE":"LARGE","APOAPSIS":"446.729","EPOCH":"2022-01-23T14:00:01.000224","ELEMENT_SET_NO":"999","REV_AT_EPOCH":"363","MEAN_MOTION_DDOT":"0.0000000000000","GP_ID":"194465373","DECAY_DATE":null,"RA_OF_ASC_NODE":"74.0097","OBJECT_TYPE":"PAYLOAD","PERIAPSIS":"442.758","BSTAR":"0.00021611000000","PERIOD":"93.478","TIME_SYSTEM":"UTC","ECCENTRICITY":"0.00029100","REF_FRAME":"TEME","INCLINATION":"53.2173","MEAN_MOTION_DOT":"0.00008494","EPHEMERIS_TYPE":"0","ARG_OF_PERICENTER":"17.0128","TLE_LINE1":"1 49763U 21115AR  22023.58334491  .00008494  00000-0  21611-3 0  9994","LAUNCH_DATE":"2021-12-02","SEMIMAJOR_AXIS":"6822.878"},{"SITE":"AFETR","OBJECT_NAME":"STARLINK-3206","TLE_LINE2":"2 49764  53.2169  74.0176 0002785  21.4694 250.5037 15.40456926  3637","NORAD_CAT_ID":"49764","COUNTRY_CODE":"US","MEAN_MOTION":"15.40456926","CENTER_NAME":"EARTH","CLASSIFICATION_TYPE":"U","REV_AT_EPOCH":"363","MEAN_MOTION_DDOT":"0.0000000000000","RA_OF_ASC_NODE":"74.0176","OBJECT_TYPE":"PAYLOAD","GP_ID":"194466624","DECAY_DATE":null,"MEAN_ANOMALY":"250.5037","MEAN_ELEMENT_THEORY":"SGP4","RCS_SIZE":"LARGE","EPOCH":"2022-01-23T14:00:01.000224","APOAPSIS":"446.662","ELEMENT_SET_NO":"999","FILE":"3280923","OBJECT_ID":"2021-115AS","TIME_SYSTEM":"UTC","ECCENTRICITY":"0.00027850","REF_FRAME":"TEME","PERIAPSIS":"442.862","BSTAR":"-0.00017299000000","PERIOD":"93.479","ARG_OF_PERICENTER":"21.4694","TLE_LINE1":"1 49764U 21115AS  22023.58334491 -.00007511  00000-0 -17299-3 0  9993","EPHEMERIS_TYPE":"0","SEMIMAJOR_AXIS":"6822.897","LAUNCH_DATE":"2021-12-02","INCLINATION":"53.2169","MEAN_MOTION_DOT":"-0.00007511"},{"GP_ID":"194466867","DECAY_DATE":null,"RA_OF_ASC_NODE":"74.0135","OBJECT_TYPE":"PAYLOAD","REV_AT_EPOCH":"363","MEAN_MOTION_DDOT":"0.0000000000000","FILE":"3280923","OBJECT_ID":"2021-115AT","MEAN_ELEMENT_THEORY":"SGP4","APOAPSIS":"446.750","RCS_SIZE":"LARGE","EPOCH":"2022-01-23T14:00:01.000224","ELEMENT_SET_NO":"999","MEAN_ANOMALY":"258.4549","TLE_LINE2":"2 49765  53.2174  74.0135 0002872  16.7271 258.4549 15.40447226  3632","OBJECT_NAME":"STARLINK-3227","SITE":"AFETR","CLASSIFICATION_TYPE":"U","CENTER_NAME":"EARTH","NORAD_CAT_ID":"49765","MEAN_MOTION":"15.40447226","COUNTRY_CODE":"US","LAUNCH_DATE":"2021-12-02","SEMIMAJOR_AXIS":"6822.925","EPHEMERIS_TYPE":"0","ARG_OF_PERICENTER":"16.7271","TLE_LINE1":"1 49765U 21115AT  22023.58334491  .00008311  00000-0  21177-3 0  9991","MEAN_MOTION_DOT":"0.00008311","INCLINATION":"53.2174","ECCENTRICITY":"0.00028720","REF_FRAME":"TEME","TIME_SYSTEM":"UTC","BSTAR":"0.00021177000000","PERIOD":"93.479","PERIAPSIS":"442.831"},{"MEAN_MOTION_DOT":"-0.00021867","INCLINATION":"53.2168","LAUNCH_DATE":"2021-12-02","SEMIMAJOR_AXIS":"6822.854","EPHEMERIS_TYPE":"0","TLE_LINE1":"1 49766U 21115AU  22023.58334491 -.00021867  00000-0 -52314-3 0  9992","ARG_OF_PERICENTER":"12.1417","PERIOD":"93.478","BSTAR":"-0.00052314000000","PERIAPSIS":"442.445","REF_FRAME":"TEME","ECCENTRICITY":"0.00033320","TIME_SYSTEM":"UTC","OBJECT_ID":"2021-115AU","FILE":"3280923","RCS_SIZE":"LARGE","APOAPSIS":"446.992","EPOCH":"2022-01-23T14:00:01.000224","ELEMENT_SET_NO":"999","MEAN_ELEMENT_THEORY":"SGP4","MEAN_ANOMALY":"258.7534","DECAY_DATE":null,"GP_ID":"194465124","OBJECT_TYPE":"PAYLOAD","RA_OF_ASC_NODE":"74.0192","MEAN_MOTION_DDOT":"0.0000000000000","REV_AT_EPOCH":"363","CENTER_NAME":"EARTH","CLASSIFICATION_TYPE":"U","COUNTRY_CODE":"US","MEAN_MOTION":"15.40471552","NORAD_CAT_ID":"49766","TLE_LINE2":"2 49766  53.2168  74.0192 0003332  12.1417 258.7534 15.40471552  3639","OBJECT_NAME":"STARLINK-3190","SITE":"AFETR"},{"MEAN_MOTION_DDOT":"0.0000000000000","REV_AT_EPOCH":"363","DECAY_DATE":null,"GP_ID":"194465873","OBJECT_TYPE":"PAYLOAD","RA_OF_ASC_NODE":"74.0171","MEAN_ANOMALY":"257.4140","OBJECT_ID":"2021-115AV","FILE":"3280923","RCS_SIZE":"LARGE","EPOCH":"2022-01-23T14:00:01.000224","APOAPSIS":"446.746","ELEMENT_SET_NO":"999","MEAN_ELEMENT_THEORY":"SGP4","OBJECT_NAME":"STARLINK-3192","SITE":"AFETR","TLE_LINE2":"2 49767  53.2172  74.0171 0002893  15.6118 257.4140 15.40453451  3636","MEAN_MOTION":"15.40453451","COUNTRY_CODE":"US","NORAD_CAT_ID":"49767","CLASSIFICATION_TYPE":"U","CENTER_NAME":"EARTH","EPHEMERIS_TYPE":"0","TLE_LINE1":"1 49767U 21115AV  22023.58334491  .00009014  00000-0  22879-3 0  9994","ARG_OF_PERICENTER":"15.6118","LAUNCH_DATE":"2021-12-02","SEMIMAJOR_AXIS":"6822.907","INCLINATION":"53.2172","MEAN_MOTION_DOT":"0.00009014","TIME_SYSTEM":"UTC","REF_FRAME":"TEME","ECCENTRICITY":"0.00028930","PERIAPSIS":"442.798","PERIOD":"93.479","BSTAR":"0.00022879000000"},{"TIME_SYSTEM":"UTC","ECCENTRICITY":"0.00034220","REF_FRAME":"TEME","PERIAPSIS":"442.409","BSTAR":"0.00017856000000","PERIOD":"93.478","ARG_OF_PERICENTER":"9.8984","TLE_LINE1":"1 49768U 21115AW  22023.58334491  .00006946  00000-0  17856-3 0  9995","EPHEMERIS_TYPE":"0","SEMIMAJOR_AXIS":"6822.879","LAUNCH_DATE":"2021-12-02","INCLINATION":"53.2166","MEAN_MOTION_DOT":"0.00006946","SITE":"AFETR","OBJECT_NAME":"STARLINK-3196","TLE_LINE2":"2 49768  53.2166  74.0224 0003422   9.8984 258.8968 15.40462879  3631","NORAD_CAT_ID":"49768","MEAN_MOTION":"15.40462879","COUNTRY_CODE":"US","CLASSIFICATION_TYPE":"U","CENTER_NAME":"EARTH","REV_AT_EPOCH":"363","MEAN_MOTION_DDOT":"0.0000000000000","RA_OF_ASC_NODE":"74.0224","OBJECT_TYPE":"PAYLOAD","GP_ID":"194466125","DECAY_DATE":null,"MEAN_ANOMALY":"258.8968","MEAN_ELEMENT_THEORY":"SGP4","RCS_SIZE":"LARGE","EPOCH":"2022-01-23T14:00:01.000224","APOAPSIS":"447.079","ELEMENT_SET_NO":"999","FILE":"3280923","OBJECT_ID":"2021-115AW"},{"SEMIMAJOR_AXIS":"6822.821","LAUNCH_DATE":"2021-12-02","ARG_OF_PERICENTER":"8.6103","TLE_LINE1":"1 49769U 21115AX  22023.58334491  .00029263  00000-0  71809-3 0  9991","EPHEMERIS_TYPE":"0","MEAN_MOTION_DOT":"0.00029263","INCLINATION":"53.2170","ECCENTRICITY":"0.00034350","REF_FRAME":"TEME","TIME_SYSTEM":"UTC","BSTAR":"0.00071809000000","PERIOD":"93.477","PERIAPSIS":"442.343","RA_OF_ASC_NODE":"74.0229","OBJECT_TYPE":"PAYLOAD","GP_ID":"194466368","DECAY_DATE":null,"REV_AT_EPOCH":"363","MEAN_MOTION_DDOT":"0.0000000000000","MEAN_ELEMENT_THEORY":"SGP4","RCS_SIZE":"LARGE","APOAPSIS":"447.030","EPOCH":"2022-01-23T14:00:01.000224","ELEMENT_SET_NO":"999","FILE":"3280923","OBJECT_ID":"2021-115AX","MEAN_ANOMALY":"261.1846","TLE_LINE2":"2 49769  53.2170  74.0229 0003435   8.6103 261.1846 15.40482481  3639","SITE":"AFETR","OBJECT_NAME":"STARLINK-3208","CENTER_NAME":"EARTH","CLASSIFICATION_TYPE":"U","NORAD_CAT_ID":"49769","MEAN_MOTION":"15.40482481","COUNTRY_CODE":"US"},{"REF_FRAME":"TEME","ECCENTRICITY":"0.00034540","TIME_SYSTEM":"UTC","PERIOD":"93.478","BSTAR":"-0.00023949000000","PERIAPSIS":"442.364","SEMIMAJOR_AXIS":"6822.855","LAUNCH_DATE":"2021-12-02","TLE_LINE1":"1 49770U 21115AY  22023.58334491 -.00010245  00000-0 -23949-3 0  9997","ARG_OF_PERICENTER":"10.6807","EPHEMERIS_TYPE":"0","MEAN_MOTION_DOT":"-0.00010245","INCLINATION":"53.2166","TLE_LINE2":"2 49770  53.2166  74.0243 0003454  10.6807 257.1025 15.40471024  3632","SITE":"AFETR","OBJECT_NAME":"STARLINK-3191","CLASSIFICATION_TYPE":"U","CENTER_NAME":"EARTH","MEAN_MOTION":"15.40471024","COUNTRY_CODE":"US","NORAD_CAT_ID":"49770","OBJECT_TYPE":"PAYLOAD","RA_OF_ASC_NODE":"74.0243","DECAY_DATE":null,"GP_ID":"194465624","MEAN_MOTION_DDOT":"0.0000000000000","REV_AT_EPOCH":"363","RCS_SIZE":"LARGE","EPOCH":"2022-01-23T14:00:01.000224","APOAPSIS":"447.077","ELEMENT_SET_NO":"999","MEAN_ELEMENT_THEORY":"SGP4","OBJECT_ID":"2021-115AY","FILE":"3280923","MEAN_ANOMALY":"257.1025"},{"INCLINATION":"53.2170","MEAN_MOTION_DOT":"-0.00011721","EPHEMERIS_TYPE":"0","TLE_LINE1":"1 49771U 21115AZ  22023.58334491 -.00011721  00000-0 -27555-3 0  9995","ARG_OF_PERICENTER":"16.3986","LAUNCH_DATE":"2021-12-02","SEMIMAJOR_AXIS":"6822.879","PERIAPSIS":"442.694","PERIOD":"93.478","BSTAR":"-0.00027555000000","TIME_SYSTEM":"UTC","REF_FRAME":"TEME","ECCENTRICITY":"0.00030050","MEAN_ANOMALY":"250.2934","OBJECT_ID":"2021-115AZ","FILE":"3280923","APOAPSIS":"446.794","RCS_SIZE":"LARGE","EPOCH":"2022-01-23T14:00:01.000224","ELEMENT_SET_NO":"999","MEAN_ELEMENT_THEORY":"SGP4","MEAN_MOTION_DDOT":"0.0000000000000","REV_AT_EPOCH":"363","DECAY_DATE":null,"GP_ID":"194465374","OBJECT_TYPE":"PAYLOAD","RA_OF_ASC_NODE":"74.0289","COUNTRY_CODE":"US","MEAN_MOTION":"15.40462962","NORAD_CAT_ID":"49771","CENTER_NAME":"EARTH","CLASSIFICATION_TYPE":"U","OBJECT_NAME":"STARLINK-3201","SITE":"AFETR","TLE_LINE2":"2 49771  53.2170  74.0289 0003005  16.3986 250.2934 15.40462962  3635"},{"INCLINATION":"53.2169","MEAN_MOTION_DOT":"-0.00098747","EPHEMERIS_TYPE":"0","TLE_LINE1":"1 50156U 21125A   22023.58334491 -.00098747  00000-0 -70615-3 0  9993","ARG_OF_PERICENTER":"70.2878","LAUNCH_DATE":"2021-12-18","SEMIMAJOR_AXIS":"6727.775","PERIAPSIS":"348.700","PERIOD":"91.531","BSTAR":"-0.00070615000000","TIME_SYSTEM":"UTC","REF_FRAME":"TEME","ECCENTRICITY":"0.00013980","MEAN_ANOMALY":"300.4612","OBJECT_ID":"2021-125A","FILE":"3280923","RCS_SIZE":"LARGE","APOAPSIS":"350.581","ELEMENT_SET_NO":"999","EPOCH":"2022-01-23T14:00:01.000224","MEAN_ELEMENT_THEORY":"SGP4","MEAN_MOTION_DDOT":"0.0000000000000","REV_AT_EPOCH":"369","DECAY_DATE":null,"GP_ID":"194465916","OBJECT_TYPE":"PAYLOAD","RA_OF_ASC_NODE":"187.1821","MEAN_MOTION":"15.73242086","COUNTRY_CODE":"US","NORAD_CAT_ID":"50156","CENTER_NAME":"EARTH","CLASSIFICATION_TYPE":"U","OBJECT_NAME":"STARLINK-3317","SITE":"AFWTR","TLE_LINE2":"2 50156  53.2169 187.1821 0001398  70.2878 300.4612 15.73242086  3698"}];
